[{"OBJECT_NAME":"TANSTAAFL-2","OBJECT_ID":"2024-247B","EPOCH":"2026-03-08T04:58:51.015360","MEAN_MOTION":15.28016845,"ECCENTRICITY":0.00030723,"INCLINATION":44.988,"RA_OF_ASC_NODE":125.0934,"ARG_OF_PERICENTER":298.8909,"MEAN_ANOMALY":61.1666,"EPHEMERIS_TYPE":0,"CLASSIFICATION_TYPE":"U","NORAD_CAT_ID":62378,"ELEMENT_SET_NO":999,"REV_AT_EPOCH":6750,"BSTAR":0.00050871624,"MEAN_MOTION_DOT":0.00013897,"MEAN_MOTION_DDOT":0},{"OBJECT_NAME":"FENGYUN 1C DEB","OBJECT_ID":"1999-025BNP","EPOCH":"2026-03-08T20:32:05.282880","MEAN_MOTION":15.24866573,"ECCENTRICITY":0.00982022,"INCLINATION":98.3915,"RA_OF_ASC_NODE":217.6412,"ARG_OF_PERICENTER":158.7529,"MEAN_ANOMALY":201.7829,"EPHEMERIS_TYPE":0,"CLASSIFICATION_TYPE":"U","NORAD_CAT_ID":31281,"ELEMENT_SET_NO":999,"REV_AT_EPOCH":1008,"BSTAR":0.0025465872,"MEAN_MOTION_DOT":0.00073171,"MEAN_MOTION_DDOT":0}]
